#aV2022  9 22  0  0  0.00000000     288 DD+AD WGS84 FIT  NGA
## 2228 345600.00000000   300.00000000 59844 0.0000000000000
+   32     1  2  3  4  5  6  7  8  9 10 11 12 13 14 15 16 17
+         18 19 20 21 22 23 24 25 26 27 28 29 30 31 32  0  0
+          0  0  0  0  0  0  0  0  0  0  0  0  0  0  0  0  0
+          0  0  0  0  0  0  0  0  0  0  0  0  0  0  0  0  0
+          0  0  0  0  0  0  0  0  0  0  0  0  0  0  0  0  0
++         2  2  2  2  2  2  2  2  2  2  2  2  2  2  2  2  2
++         2  2  2  2  2  2  2  2  2  2  2  2  2  2  2  0  0
++         0  0  0  0  0  0  0  0  0  0  0  0  0  0  0  0  0
++         0  0  0  0  0  0  0  0  0  0  0  0  0  0  0  0  0
++         0  0  0  0  0  0  0  0  0  0  0  0  0  0  0  0  0
%c cc cc ccc ccc cccc cccc cccc cccc ccccc ccccc ccccc ccccc
%c cc cc ccc ccc cccc cccc cccc cccc ccccc ccccc ccccc ccccc
%f  0.0000000  0.000000000  0.00000000000  0.000000000000000
%f  0.0000000  0.000000000  0.00000000000  0.000000000000000
%i    0    0    0    0      0      0      0      0         0
%i    0    0    0    0      0      0      0      0         0
/*      NGA, ST. LOUIS,MO.                                  
/*   EPHEMERIS COMPUTED FROM 2 DAYS OF DATA                 
/*   EPOCHA v8 SMOOTHER                                     
/*   G2139 IERS2010 SATIGS SATAPC                           
*  2022  9 22  6  0  0.00000000
P  1  13898.023666 -21498.790193   6063.880044    279.773307                    
V  1  -1313.117910   8340.369797  31335.507667     -0.064400                    
P  2 -14963.619266  17824.969248 -12342.835379   -645.182641                    
V  2   3178.455072 -16447.612890 -26100.019777      0.013434                    
P  3  18994.363812 -11999.296272 -14205.603534   -354.806334                    
V  3  17930.687418   -312.699113  24559.182597     -0.056656                    
P  4   8092.950885 -14021.337528 -21036.536791   -115.080324                    
V  4  15932.805351  21478.632715  -8280.509783      0.057164                    
P  5 -25622.928312   6457.721911   3147.349537    -97.582361                    
V  5  -4574.760207  -1936.518669 -31364.971563     -0.014342                    
P  6 -10542.686598 -11328.064222 -21512.452452    468.723305                    
V  6  11356.354348 -24942.058230   7615.814131      0.121234                    
P  7   3948.754050 -24686.650170   8610.494206    305.548496                    
V  7   7090.878493  -8402.101073 -29225.142025     -0.032259                    
P  8  15029.974439  -4949.443019  21339.089296    -85.656941                    
V  8  16470.413304  21565.007690  -6235.810786     -0.015848                    
P  9  -2861.032373 -21424.619809 -15487.625035   -292.989822                    
V  9  13714.523903  14100.806967 -22188.145514      0.048492                    
P 10  13127.435116  12017.410893  19963.639437     -4.344709                    
V 10 -24596.436732   3879.621310  13642.896596     -0.016435                    
P 11 -16256.067605     43.430135 -20996.757037    -18.468033                    
V 11  11062.865300 -24268.391198  -8648.859851     -0.032200                    
P 12 -20176.168363  10557.660268 -13851.525389   -282.201624                    
V 12 -17250.445404  -1162.906103  24815.474279     -0.060226                    
P 13 -17677.178277  -4744.350882  19146.052359    392.165316                    
V 13 -10936.981998 -22047.287611 -15245.604485      0.071947                    
P 14 -10746.494270 -13553.671219  20192.206669   -101.710929                    
V 14  25445.299335  -3226.816688  11270.932749      0.029757                    
P 15 -14659.276161   6971.585833  20624.605502    -27.009448                    
V 15 -18629.755997 -19924.948536  -6076.940748      0.031091                    
P 16  26680.499971   1035.813856  -2709.868671   -524.750841                    
V 16  -2988.170842   2281.187025 -31357.894480     -0.009564                    
P 17 -12429.885767 -23228.447299   3530.536607    661.576267                    
V 17   4064.339366   2044.199269  31750.908748      0.037978                    
P 18  -4014.778105  24466.484256   9328.310737     40.289928                    
V 18  -6983.905842   9887.884786 -29051.846421     -0.129061                    
P 19 -17250.406550 -19018.296218  -7532.679493    213.952774                    
V 19  -3025.599733  -8861.039686  30022.905039      0.050473                    
P 20 -24302.775156   -795.808484 -10400.319258    484.429204                    
V 20  11939.350839  -6683.196802 -27592.245495     -0.031163                    
P 21  16106.660409 -14688.959824  15256.886906    159.127611                    
V 21  -3648.124395  18384.712100  23188.808055     -0.005190                    
P 22  18127.320240  17152.252485  -8924.165785    332.241521                    
V 22   4203.388998  11374.678752  28869.916301      0.068358                    
P 23   1441.305141  14953.793081  21888.497371     -0.299519                    
V 23 -27506.681561   3997.861083  -1043.178914     -0.004679                    
P 24 -14378.642091  19436.442270  10181.011333    126.994801                    
V 24    856.183468 -14030.784589  27565.638065     -0.134046                    
P 25  -8273.547095  15457.360848 -20161.832515    374.629332                    
V 25 -25014.391347   2008.123519  12246.751072      0.040268                    
P 26  23407.860729   4746.046357 -12033.850951    229.545525                    
V 26 -14352.850845   5387.034668 -25659.922590      0.015821                    
P 27  19636.772342   7686.089892  16168.682333    208.677630                    
V 27  11290.335850  17481.431866 -21347.523148     -0.046406                    
P 28 -18810.684829 -10461.724078  15905.133548    336.520285                    
V 28  19307.674609  -2373.518727  22215.071758     -0.029199                    
P 29    487.053230  21008.766612 -16236.899234   -553.611572                    
V 29 -12344.591783 -16470.271223 -21820.414204     -0.032087                    
P 30  -4749.532675 -19932.428422  16855.219032   -537.091368                    
V 30  10811.446884 -18622.155769 -19331.575893     -0.001944                    
P 31  11954.414529  10343.670452 -21428.111633   -194.217862                    
V 31 -11789.706005  24260.976400   5624.136982     -0.013464                    
P 32  15804.332197  21473.010449    670.511583   -240.600934                    
V 32  -2562.310281   1113.525998  31570.604231     -0.114591                    
EOF
